CCSDS_OMM_VERS = 2.0
CREATION_DATE  = 
ORIGINATOR     = 

OBJECT_NAME    = SL-14 R/B
OBJECT_ID      = 1991-042B
CENTER_NAME    = EARTH
REF_FRAME      = TEME
TIME_SYSTEM    = UTC
MEAN_ELEMENT_THEORY = SGP/SGP4

EPOCH          = 2026-02-10T00:06:19.947456
MEAN_MOTION    = 14.81802498
ECCENTRICITY   = .00164776
INCLINATION    = 82.4898
RA_OF_ASC_NODE = 246.1496
ARG_OF_PERICENTER = 336.9902
MEAN_ANOMALY   = 23.0572

EPHEMERIS_TYPE = 0
CLASSIFICATION_TYPE = U
NORAD_CAT_ID   = 21423
ELEMENT_SET_NO = 999
REV_AT_EPOCH   = 84897
BSTAR          = .49956887E-4
MEAN_MOTION_DOT = .418E-5
MEAN_MOTION_DDOT = 0

CCSDS_OMM_VERS = 2.0
CREATION_DATE  = 
ORIGINATOR     = 

OBJECT_NAME    = ERS-1
OBJECT_ID      = 1991-050A
CENTER_NAME    = EARTH
REF_FRAME      = TEME
TIME_SYSTEM    = UTC
MEAN_ELEMENT_THEORY = SGP/SGP4

EPOCH          = 2026-02-10T10:46:19.589376
MEAN_MOTION    = 14.39426804
ECCENTRICITY   = .003092
INCLINATION    = 98.7895
RA_OF_ASC_NODE = 58.9983
ARG_OF_PERICENTER = 283.5810
MEAN_ANOMALY   = 76.1934

EPHEMERIS_TYPE = 0
CLASSIFICATION_TYPE = U
NORAD_CAT_ID   = 21574
ELEMENT_SET_NO = 999
REV_AT_EPOCH   = 81181
BSTAR          = .13421E-3
MEAN_MOTION_DOT = .373E-5
MEAN_MOTION_DDOT = 0

CCSDS_OMM_VERS = 2.0
CREATION_DATE  = 
ORIGINATOR     = 

OBJECT_NAME    = ARIANE 40 R/B
OBJECT_ID      = 1991-050F
CENTER_NAME    = EARTH
REF_FRAME      = TEME
TIME_SYSTEM    = UTC
MEAN_ELEMENT_THEORY = SGP/SGP4

EPOCH          = 2026-02-10T03:33:48.626208
MEAN_MOTION    = 14.42872944
ECCENTRICITY   = .00038497
INCLINATION    = 98.2073
RA_OF_ASC_NODE = 94.4107
ARG_OF_PERICENTER = 142.0267
MEAN_ANOMALY   = 218.1195

EPHEMERIS_TYPE = 0
CLASSIFICATION_TYPE = U
NORAD_CAT_ID   = 21610
ELEMENT_SET_NO = 999
REV_AT_EPOCH   = 81502
BSTAR          = .11033364E-3
MEAN_MOTION_DOT = .327E-5
MEAN_MOTION_DDOT = 0

CCSDS_OMM_VERS = 2.0
CREATION_DATE  = 
ORIGINATOR     = 

OBJECT_NAME    = INTERCOSMOS 25
OBJECT_ID      = 1991-086A
CENTER_NAME    = EARTH
REF_FRAME      = TEME
TIME_SYSTEM    = UTC
MEAN_ELEMENT_THEORY = SGP/SGP4

EPOCH          = 2026-02-10T07:54:50.399136
MEAN_MOTION    = 12.11923096
ECCENTRICITY   = .1486813
INCLINATION    = 82.6086
RA_OF_ASC_NODE = 326.5412
ARG_OF_PERICENTER = 175.8735
MEAN_ANOMALY   = 185.6393

EPHEMERIS_TYPE = 0
CLASSIFICATION_TYPE = U
NORAD_CAT_ID   = 21819
ELEMENT_SET_NO = 999
REV_AT_EPOCH   = 49337
BSTAR          = .2903E-3
MEAN_MOTION_DOT = .1496E-4
MEAN_MOTION_DDOT = 0

CCSDS_OMM_VERS = 2.0
CREATION_DATE  = 
ORIGINATOR     = 

OBJECT_NAME    = SL-8 R/B
OBJECT_ID      = 1992-008B
CENTER_NAME    = EARTH
REF_FRAME      = TEME
TIME_SYSTEM    = UTC
MEAN_ELEMENT_THEORY = SGP/SGP4

EPOCH          = 2026-02-10T05:56:03.067008
MEAN_MOTION    = 13.75969680
ECCENTRICITY   = .00339
INCLINATION    = 82.9261
RA_OF_ASC_NODE = 288.1938
ARG_OF_PERICENTER = 209.6045
MEAN_ANOMALY   = 273.3160

EPHEMERIS_TYPE = 0
CLASSIFICATION_TYPE = U
NORAD_CAT_ID   = 21876
ELEMENT_SET_NO = 999
REV_AT_EPOCH   = 70564
BSTAR          = .17518E-4
MEAN_MOTION_DOT = .32E-6
MEAN_MOTION_DDOT = 0

CCSDS_OMM_VERS = 2.0
CREATION_DATE  = 
ORIGINATOR     = 

OBJECT_NAME    = SL-8 R/B
OBJECT_ID      = 1992-020B
CENTER_NAME    = EARTH
REF_FRAME      = TEME
TIME_SYSTEM    = UTC
MEAN_ELEMENT_THEORY = SGP/SGP4

EPOCH          = 2026-02-10T11:44:56.859936
MEAN_MOTION    = 13.75545599
ECCENTRICITY   = .0029196
INCLINATION    = 82.9333
RA_OF_ASC_NODE = 173.9504
ARG_OF_PERICENTER = 16.3798
MEAN_ANOMALY   = 53.8167

EPHEMERIS_TYPE = 0
CLASSIFICATION_TYPE = U
NORAD_CAT_ID   = 21938
ELEMENT_SET_NO = 999
REV_AT_EPOCH   = 69739
BSTAR          = .1202E-3
MEAN_MOTION_DOT = .131E-5
MEAN_MOTION_DDOT = 0

CCSDS_OMM_VERS = 2.0
CREATION_DATE  = 
ORIGINATOR     = 

OBJECT_NAME    = USA 81
OBJECT_ID      = 1992-023A
CENTER_NAME    = EARTH
REF_FRAME      = TEME
TIME_SYSTEM    = UTC
MEAN_ELEMENT_THEORY = SGP/SGP4

EPOCH          = 2026-02-10T08:15:50.798016
MEAN_MOTION    = 14.32357940
ECCENTRICITY   = .000266
INCLINATION    = 85.0120
RA_OF_ASC_NODE = 147.2089
ARG_OF_PERICENTER = 102.1429
MEAN_ANOMALY   = 258.0062

EPHEMERIS_TYPE = 0
CLASSIFICATION_TYPE = U
NORAD_CAT_ID   = 21949
ELEMENT_SET_NO = 999
REV_AT_EPOCH   = 9087
BSTAR          = .78061E-4
MEAN_MOTION_DOT = .231E-5
MEAN_MOTION_DDOT = 0

CCSDS_OMM_VERS = 2.0
CREATION_DATE  = 
ORIGINATOR     = 

OBJECT_NAME    = COSMOS 2219
OBJECT_ID      = 1992-076A
CENTER_NAME    = EARTH
REF_FRAME      = TEME
TIME_SYSTEM    = UTC
MEAN_ELEMENT_THEORY = SGP/SGP4

EPOCH          = 2026-02-10T11:58:25.658112
MEAN_MOTION    = 14.14076498
ECCENTRICITY   = .0020247
INCLINATION    = 71.0581
RA_OF_ASC_NODE = 74.9130
ARG_OF_PERICENTER = 244.2668
MEAN_ANOMALY   = 115.6365

EPHEMERIS_TYPE = 0
CLASSIFICATION_TYPE = U
NORAD_CAT_ID   = 22219
ELEMENT_SET_NO = 999
REV_AT_EPOCH   = 71453
BSTAR          = .4077E-5
MEAN_MOTION_DOT = -.39E-6
MEAN_MOTION_DDOT = 0

CCSDS_OMM_VERS = 2.0
CREATION_DATE  = 
ORIGINATOR     = 

OBJECT_NAME    = SL-16 R/B
OBJECT_ID      = 1992-076B
CENTER_NAME    = EARTH
REF_FRAME      = TEME
TIME_SYSTEM    = UTC
MEAN_ELEMENT_THEORY = SGP/SGP4

EPOCH          = 2026-02-10T00:59:29.640192
MEAN_MOTION    = 14.16855968
ECCENTRICITY   = .00114391
INCLINATION    = 70.9978
RA_OF_ASC_NODE = 246.6150
ARG_OF_PERICENTER = 145.9399
MEAN_ANOMALY   = 16.5666

EPHEMERIS_TYPE = 0
CLASSIFICATION_TYPE = U
NORAD_CAT_ID   = 22220
ELEMENT_SET_NO = 999
REV_AT_EPOCH   = 71791
BSTAR          = .1861585E-4
MEAN_MOTION_DOT = -.11E-6
MEAN_MOTION_DDOT = 0

CCSDS_OMM_VERS = 2.0
CREATION_DATE  = 
ORIGINATOR     = 

OBJECT_NAME    = COSMOS 2221
OBJECT_ID      = 1992-080A
CENTER_NAME    = EARTH
REF_FRAME      = TEME
TIME_SYSTEM    = UTC
MEAN_ELEMENT_THEORY = SGP/SGP4

EPOCH          = 2026-02-10T05:11:41.671392
MEAN_MOTION    = 14.96091847
ECCENTRICITY   = .0012872
INCLINATION    = 82.5054
RA_OF_ASC_NODE = 305.3929
ARG_OF_PERICENTER = 287.9945
MEAN_ANOMALY   = 71.9873

EPHEMERIS_TYPE = 0
CLASSIFICATION_TYPE = U
NORAD_CAT_ID   = 22236
ELEMENT_SET_NO = 999
REV_AT_EPOCH   = 77668
BSTAR          = .19909E-3
MEAN_MOTION_DOT = .2266E-4
MEAN_MOTION_DDOT = 0

CCSDS_OMM_VERS = 2.0
CREATION_DATE  = 
ORIGINATOR     = 

OBJECT_NAME    = SL-16 R/B
OBJECT_ID      = 1992-093B
CENTER_NAME    = EARTH
REF_FRAME      = TEME
TIME_SYSTEM    = UTC
MEAN_ELEMENT_THEORY = SGP/SGP4

EPOCH          = 2026-02-10T11:03:33.336000
MEAN_MOTION    = 14.15441087
ECCENTRICITY   = .000519
INCLINATION    = 71.0200
RA_OF_ASC_NODE = 61.4279
ARG_OF_PERICENTER = 322.5305
MEAN_ANOMALY   = 37.5456

EPHEMERIS_TYPE = 0
CLASSIFICATION_TYPE = U
NORAD_CAT_ID   = 22285
ELEMENT_SET_NO = 999
REV_AT_EPOCH   = 70930
BSTAR          = .34167E-4
MEAN_MOTION_DOT = .19E-6
MEAN_MOTION_DDOT = 0

CCSDS_OMM_VERS = 2.0
CREATION_DATE  = 
ORIGINATOR     = 

OBJECT_NAME    = COSMOS 2228
OBJECT_ID      = 1992-094A
CENTER_NAME    = EARTH
REF_FRAME      = TEME
TIME_SYSTEM    = UTC
MEAN_ELEMENT_THEORY = SGP/SGP4

EPOCH          = 2026-02-10T10:49:51.919104
MEAN_MOTION    = 14.97063904
ECCENTRICITY   = .0018963
INCLINATION    = 82.5156
RA_OF_ASC_NODE = 263.3940
ARG_OF_PERICENTER = 37.3866
MEAN_ANOMALY   = 322.8672

EPHEMERIS_TYPE = 0
CLASSIFICATION_TYPE = U
NORAD_CAT_ID   = 22286
ELEMENT_SET_NO = 999
REV_AT_EPOCH   = 77198
BSTAR          = .14872E-3
MEAN_MOTION_DOT = .1746E-4
MEAN_MOTION_DDOT = 0

